[{"OBJECT_NAME":"BB3","OBJECT_ID":"2023-133D","EPOCH":"2026-03-09T13:04:02.862912","MEAN_MOTION":14.27357433,"ECCENTRICITY":0.0139598,"INCLINATION":81.0042,"RA_OF_ASC_NODE":95.4105,"ARG_OF_PERICENTER":242.6727,"MEAN_ANOMALY":116.0185,"EPHEMERIS_TYPE":0,"CLASSIFICATION_TYPE":"U","NORAD_CAT_ID":57760,"ELEMENT_SET_NO":999,"REV_AT_EPOCH":12768,"BSTAR":0.00021531,"MEAN_MOTION_DOT":5.96e-6,"MEAN_MOTION_DDOT":0},{"OBJECT_NAME":"THOR ABLESTAR DEB","OBJECT_ID":"1961-015D","EPOCH":"2026-03-09T22:30:01.606176","MEAN_MOTION":14.27205069,"ECCENTRICITY":0.01043941,"INCLINATION":66.7261,"RA_OF_ASC_NODE":286.7768,"ARG_OF_PERICENTER":328.6249,"MEAN_ANOMALY":30.8645,"EPHEMERIS_TYPE":0,"CLASSIFICATION_TYPE":"U","NORAD_CAT_ID":119,"ELEMENT_SET_NO":999,"REV_AT_EPOCH":34415,"BSTAR":0.00017016817,"MEAN_MOTION_DOT":3.56e-6,"MEAN_MOTION_DDOT":0}]
